[{"OBJECT_NAME":"STARLINK-36555","OBJECT_ID":"2026-012E","EPOCH":"2026-03-08T17:41:25.157472","MEAN_MOTION":15.27597001,"ECCENTRICITY":6.75e-5,"INCLINATION":42.9956,"RA_OF_ASC_NODE":320.0039,"ARG_OF_PERICENTER":70.5265,"MEAN_ANOMALY":289.566,"EPHEMERIS_TYPE":0,"CLASSIFICATION_TYPE":"U","NORAD_CAT_ID":67497,"ELEMENT_SET_NO":999,"REV_AT_EPOCH":761,"BSTAR":0.0013564559,"MEAN_MOTION_DOT":0.00037273,"MEAN_MOTION_DDOT":0},{"OBJECT_NAME":"OBJECT P","OBJECT_ID":"2018-099P","EPOCH":"2026-03-09T16:35:55.790016","MEAN_MOTION":15.30834106,"ECCENTRICITY":0.00076856,"INCLINATION":97.4366,"RA_OF_ASC_NODE":131.9195,"ARG_OF_PERICENTER":276.7627,"MEAN_ANOMALY":83.2739,"EPHEMERIS_TYPE":0,"CLASSIFICATION_TYPE":"U","NORAD_CAT_ID":43771,"ELEMENT_SET_NO":999,"REV_AT_EPOCH":39830,"BSTAR":0.00063632878,"MEAN_MOTION_DOT":0.00018926,"MEAN_MOTION_DDOT":0}]
